{
  "type": "FeatureCollection",
  "name": "Logan Circle building footprints",
  "source": "District of Columbia Office of the Chief Technology Officer, Building Footprints 2023",
  "sourceUrl": "https://www.arcgis.com/home/item.html?id=65246daf2e12425bae77e12dab00336f",
  "license": "CC BY 4.0",
  "modified": "Subset selected and coordinate precision reduced by Reuters Graphics.",
  "features": [
    {
      "type": "Feature",
      "id": "8563",
      "geometry": {
        "type": "Polygon",
        "coordinates": [
          [
            [-77.030106, 38.910337],
            [-77.030049, 38.91025],
            [-77.030042, 38.910254],
            [-77.030039, 38.910256],
            [-77.030029, 38.910253],
            [-77.030021, 38.910252],
            [-77.030012, 38.910253],
            [-77.030007, 38.910255],
            [-77.030004, 38.910257],
            [-77.03, 38.910263],
            [-77.029999, 38.910269],
            [-77.029973, 38.910279],
            [-77.029968, 38.91028],
            [-77.030004, 38.910346],
            [-77.030043, 38.910415],
            [-77.030069, 38.910463],
            [-77.030136, 38.910441],
            [-77.030084, 38.910346],
            [-77.030106, 38.910337]
          ]
        ]
      },
      "properties": { "description": "Building" }
    },
    {
      "type": "Feature",
      "id": "10820",
      "geometry": {
        "type": "Polygon",
        "coordinates": [
          [
            [-77.029997, 38.91063],
            [-77.030079, 38.910631],
            [-77.03008, 38.910576],
            [-77.029998, 38.910575],
            [-77.029997, 38.91063]
          ]
        ]
      },
      "properties": { "description": "Building" }
    },
    {
      "type": "Feature",
      "id": "16267",
      "geometry": {
        "type": "Polygon",
        "coordinates": [
          [
            [-77.029929, 38.91068],
            [-77.029808, 38.910679],
            [-77.029808, 38.910688],
            [-77.029797, 38.910694],
            [-77.029798, 38.910713],
            [-77.029807, 38.910717],
            [-77.029807, 38.910736],
            [-77.029944, 38.910738],
            [-77.030007, 38.910738],
            [-77.030008, 38.910694],
            [-77.029928, 38.910693],
            [-77.029929, 38.91068]
          ]
        ]
      },
      "properties": { "description": "Building" }
    },
    {
      "type": "Feature",
      "id": "20505",
      "geometry": {
        "type": "Polygon",
        "coordinates": [
          [
            [-77.029944, 38.910785],
            [-77.029809, 38.910785],
            [-77.029792, 38.910791],
            [-77.029791, 38.910809],
            [-77.029808, 38.910817],
            [-77.029808, 38.910833],
            [-77.029944, 38.910833],
            [-77.029944, 38.910821],
            [-77.029995, 38.910821],
            [-77.029994, 38.910784],
            [-77.029944, 38.910785]
          ]
        ]
      },
      "properties": { "description": "Building" }
    },
    {
      "type": "Feature",
      "id": "20690",
      "geometry": {
        "type": "Polygon",
        "coordinates": [
          [
            [-77.030069, 38.910463],
            [-77.030043, 38.910415],
            [-77.030004, 38.910346],
            [-77.029968, 38.91028],
            [-77.029966, 38.910277],
            [-77.029924, 38.910291],
            [-77.029923, 38.910292],
            [-77.029899, 38.910299],
            [-77.029888, 38.910302],
            [-77.029912, 38.910351],
            [-77.029933, 38.910396],
            [-77.029934, 38.910396],
            [-77.029959, 38.910432],
            [-77.029968, 38.910435],
            [-77.02999, 38.910475],
            [-77.029993, 38.91048],
            [-77.029997, 38.910479],
            [-77.030004, 38.910492],
            [-77.030073, 38.910469],
            [-77.03007, 38.910465],
            [-77.030069, 38.910463]
          ]
        ]
      },
      "properties": { "description": "Building" }
    },
    {
      "type": "Feature",
      "id": "26986",
      "geometry": {
        "type": "Polygon",
        "coordinates": [
          [
            [-77.029434, 38.91066],
            [-77.029434, 38.910626],
            [-77.029442, 38.910625],
            [-77.029451, 38.910619],
            [-77.029452, 38.910593],
            [-77.029446, 38.910585],
            [-77.029434, 38.910579],
            [-77.029434, 38.910512],
            [-77.029424, 38.910501],
            [-77.02941, 38.910492],
            [-77.029392, 38.910491],
            [-77.029376, 38.910496],
            [-77.029365, 38.910507],
            [-77.029359, 38.910527],
            [-77.029339, 38.910528],
            [-77.029338, 38.910567],
            [-77.029308, 38.910592],
            [-77.029305, 38.910616],
            [-77.029277, 38.910631],
            [-77.029277, 38.910655],
            [-77.029301, 38.910676],
            [-77.0293, 38.910701],
            [-77.02943, 38.910702],
            [-77.02943, 38.91067],
            [-77.029434, 38.91066]
          ]
        ]
      },
      "properties": { "description": "Building" }
    },
    {
      "type": "Feature",
      "id": "27287",
      "geometry": {
        "type": "Polygon",
        "coordinates": [
          [
            [-77.029807, 38.910736],
            [-77.029791, 38.910743],
            [-77.029791, 38.910762],
            [-77.029809, 38.91077],
            [-77.029809, 38.910785],
            [-77.029944, 38.910785],
            [-77.029944, 38.910777],
            [-77.030007, 38.910778],
            [-77.030007, 38.910738],
            [-77.029944, 38.910738],
            [-77.029807, 38.910736]
          ]
        ]
      },
      "properties": { "description": "Building" }
    },
    {
      "type": "Feature",
      "id": "36201",
      "geometry": {
        "type": "Polygon",
        "coordinates": [
          [
            [-77.0298, 38.910631],
            [-77.029812, 38.910632],
            [-77.029812, 38.910627],
            [-77.029888, 38.910628],
            [-77.029964, 38.91063],
            [-77.029966, 38.910576],
            [-77.029952, 38.910553],
            [-77.029919, 38.910552],
            [-77.02992, 38.910514],
            [-77.029818, 38.910512],
            [-77.029817, 38.91053],
            [-77.029795, 38.910529],
            [-77.029794, 38.910561],
            [-77.02974, 38.91056],
            [-77.029739, 38.910597],
            [-77.029791, 38.910598],
            [-77.02979, 38.910625],
            [-77.0298, 38.910631]
          ]
        ]
      },
      "properties": { "description": "Building" }
    }
  ]
}
