{"type": "FeatureCollection", "features": [{"type": "Feature", "properties": {"COMMUNE": "Navaluenga", "PROVINCE": "\u00c1vila", "COUNTRY": "ES", "AREA_HA": "45405", "FIREDATE": "2026-07-22 13:36:00"}, "geometry": {"type": "MultiPolygon", "coordinates": [[[[-4.58878, 40.32396], [-4.5889, 40.31683], [-4.58641, 40.30764], [-4.58776, 40.30116], [-4.59391, 40.29696], [-4.60234, 40.29187], [-4.6123, 40.28873], [-4.62135, 40.29092], [-4.6282, 40.29891], [-4.63593, 40.30458], [-4.64403, 40.30418], [-4.65463, 40.30231], [-4.66029, 40.29599], [-4.66264, 40.29235], [-4.66501, 40.28571], [-4.6724, 40.28378], [-4.67303, 40.29068], [-4.67409, 40.29101], [-4.68304, 40.28818], [-4.69208, 40.27807], [-4.69538, 40.27238], [-4.70258, 40.26664], [-4.71574, 40.26657], [-4.71912, 40.26277], [-4.73614, 40.25637], [-4.74567, 40.25601], [-4.75132, 40.26035], [-4.75221, 40.26568], [-4.75513, 40.27207], [-4.75725, 40.27503], [-4.76604, 40.27151], [-4.76683, 40.2703], [-4.76937, 40.26444], [-4.77286, 40.26719], [-4.7899, 40.26542], [-4.79732, 40.2641], [-4.80787, 40.25881], [-4.8122, 40.25626], [-4.82587, 40.25502], [-4.83568, 40.25478], [-4.84619, 40.2599], [-4.8503, 40.26453], [-4.85157, 40.27106], [-4.85036, 40.27755], [-4.848, 40.28149], [-4.83853, 40.28777], [-4.82862, 40.29222], [-4.81527, 40.2972], [-4.81168, 40.29914], [-4.81089, 40.30186], [-4.80932, 40.3103], [-4.80156, 40.31926], [-4.79529, 40.32988], [-4.79196, 40.339], [-4.78815, 40.3461], [-4.78664, 40.34743], [-4.78815, 40.34898], [-4.79043, 40.35087], [-4.79308, 40.35269], [-4.79529, 40.35487], [-4.79706, 40.35741], [-4.79839, 40.36032], [-4.79927, 40.3636], [-4.79937, 40.36683], [-4.79867, 40.37], [-4.79718, 40.37313], [-4.7949, 40.3762], [-4.79269, 40.37899], [-4.79055, 40.38149], [-4.78849, 40.3837], [-4.78649, 40.38563], [-4.78415, 40.38703], [-4.78146, 40.3879], [-4.77843, 40.38826], [-4.77505, 40.38809], [-4.77182, 40.38783], [-4.76873, 40.38749], [-4.76579, 40.38706], [-4.763, 40.38655], [-4.76066, 40.38631], [-4.75877, 40.38634], [-4.75734, 40.38664], [-4.75636, 40.38721], [-4.75547, 40.3878], [-4.75466, 40.38839], [-4.75394, 40.38899], [-4.75331, 40.3896], [-4.75273, 40.39022], [-4.75221, 40.39085], [-4.75175, 40.39149], [-4.75135, 40.39215], [-4.75072, 40.39314], [-4.74986, 40.39447], [-4.74878, 40.39612], [-4.74746, 40.39811], [-4.74595, 40.39996], [-4.74423, 40.40167], [-4.74232, 40.40324], [-4.74021, 40.40467], [-4.73826, 40.40575], [-4.73649, 40.40649], [-4.73488, 40.40688], [-4.73345, 40.40693], [-4.73167, 40.40673], [-4.72956, 40.40628], [-4.72712, 40.40559], [-4.72433, 40.40464], [-4.72184, 40.40385], [-4.71963, 40.4032], [-4.7177, 40.4027], [-4.71606, 40.40235], [-4.71437, 40.40214], [-4.71262, 40.40206], [-4.71083, 40.40212], [-4.70898, 40.40232], [-4.70692, 40.40278], [-4.70464, 40.4035], [-4.70214, 40.4045], [-4.69944, 40.40576], [-4.69695, 40.40656], [-4.69469, 40.4069], [-4.69266, 40.40678], [-4.69085, 40.4062], [-4.68942, 40.40544], [-4.68837, 40.40449], [-4.68768, 40.40336], [-4.68737, 40.40204], [-4.68763, 40.40074], [-4.68844, 40.39947], [-4.68982, 40.39822], [-4.69176, 40.39699], [-4.69372, 40.39586], [-4.69571, 40.39485], [-4.69773, 40.39393], [-4.69977, 40.39313], [-4.7013, 40.39244], [-4.70233, 40.39186], [-4.70284, 40.39139], [-4.70285, 40.39104], [-4.7029, 40.39064], [-4.703, 40.39019], [-4.70315, 40.3897], [-4.70334, 40.38916], [-4.7035, 40.38864], [-4.70363, 40.38813], [-4.70374, 40.38763], [-4.70381, 40.38714], [-4.70385, 40.38667], [-4.70387, 40.38621], [-4.70385, 40.38576], [-4.70381, 40.38532], [-4.70375, 40.38489], [-4.70367, 40.38447], [-4.70357, 40.38405], [-4.70346, 40.38363], [-4.70334, 40.38323], [-4.70319, 40.38282], [-4.70303, 40.38242], [-4.70285, 40.38203], [-4.70261, 40.38167], [-4.70232, 40.38134], [-4.70197, 40.38104], [-4.70156, 40.38077], [-4.70109, 40.38053], [-4.70057, 40.38032], [-4.69998, 40.38014], [-4.69934, 40.38], [-4.69866, 40.37988], [-4.69794, 40.37978], [-4.69718, 40.37971], [-4.69637, 40.37967], [-4.69553, 40.37965], [-4.69464, 40.37965], [-4.69372, 40.37969], [-4.69275, 40.37974], [-4.69182, 40.37983], [-4.69093, 40.37995], [-4.69008, 40.3801], [-4.68928, 40.38027], [-4.68851, 40.38048], [-4.68778, 40.38072], [-4.68708, 40.38099], [-4.68643, 40.38128], [-4.68575, 40.38159], [-4.68503, 40.38191], [-4.68428, 40.38224], [-4.68349, 40.38258], [-4.68267, 40.38293], [-4.68182, 40.38329], [-4.68093, 40.38366], [-4.68001, 40.38404], [-4.67904, 40.38445], [-4.678, 40.38488], [-4.67692, 40.38534], [-4.67578, 40.38582], [-4.67458, 40.38632], [-4.67333, 40.38686], [-4.67202, 40.38741], [-4.67065, 40.38799], [-4.66941, 40.38859], [-4.66829, 40.38921], [-4.6673, 40.38984], [-4.66643, 40.39049], [-4.66568, 40.39116], [-4.66505, 40.39185], [-4.66455, 40.39255], [-4.66417, 40.39327], [-4.66374, 40.39404], [-4.66325, 40.39487], [-4.66272, 40.39576], [-4.66213, 40.3967], [-4.66149, 40.39769], [-4.6608, 40.39874], [-4.66005, 40.39984], [-4.65926, 40.401], [-4.65853, 40.40203], [-4.65787, 40.40294], [-4.65728, 40.40372], [-4.65676, 40.40437], [-4.65677, 40.40512], [-4.65731, 40.40597], [-4.65839, 40.40693], [-4.66, 40.40798], [-4.66152, 40.40925], [-4.66294, 40.41075], [-4.66427, 40.41247], [-4.6655, 40.41442], [-4.66648, 40.41623], [-4.66721, 40.41791], [-4.66768, 40.41946], [-4.6679, 40.42088], [-4.66782, 40.42229], [-4.66743, 40.42372], [-4.66673, 40.42514], [-4.66573, 40.42657], [-4.6639, 40.42757], [-4.66342, 40.42768], [-4.66343, 40.42773], [-4.6597, 40.43275], [-4.64686, 40.43937], [-4.63081, 40.44014], [-4.61889, 40.4363], [-4.61491, 40.4376], [-4.60699, 40.44043], [-4.60514, 40.44001], [-4.60492, 40.44036], [-4.60372, 40.4419], [-4.6021, 40.4431], [-4.60008, 40.44396], [-4.59764, 40.44447], [-4.59478, 40.44465], [-4.59192, 40.44446], [-4.58907, 40.4439], [-4.58621, 40.44299], [-4.58335, 40.44171], [-4.58101, 40.44053], [-4.5792, 40.43944], [-4.57791, 40.43843], [-4.57714, 40.43753], [-4.57653, 40.4367], [-4.57608, 40.43596], [-4.57579, 40.4353], [-4.57565, 40.43472], [-4.57554, 40.43402], [-4.57546, 40.43317], [-4.5754, 40.4322], [-4.57537, 40.4311], [-4.57529, 40.42994], [-4.57518, 40.42872], [-4.57502, 40.42744], [-4.57482, 40.42611], [-4.57442, 40.42482], [-4.57381, 40.42358], [-4.573, 40.42238], [-4.57199, 40.42122], [-4.57069, 40.42037], [-4.56908, 40.41983], [-4.56718, 40.41958], [-4.56499, 40.41964], [-4.56262, 40.41975], [-4.56009, 40.4199], [-4.55738, 40.4201], [-4.5545, 40.42035], [-4.55177, 40.42062], [-4.54918, 40.42091], [-4.54673, 40.42122], [-4.54442, 40.42156], [-4.54225, 40.42191], [-4.54023, 40.42229], [-4.53835, 40.42268], [-4.53661, 40.4231], [-4.53489, 40.42345], [-4.53319, 40.42372], [-4.53151, 40.42392], [-4.52985, 40.42404], [-4.52821, 40.42409], [-4.52659, 40.42406], [-4.52499, 40.42396], [-4.5234, 40.42379], [-4.52183, 40.42354], [-4.52027, 40.42322], [-4.51871, 40.42282], [-4.51717, 40.42235], [-4.51563, 40.4218], [-4.5141, 40.42118], [-4.51258, 40.42048], [-4.51107, 40.41971], [-4.50972, 40.419], [-4.50854, 40.41837], [-4.50753, 40.41781], [-4.50668, 40.41731], [-4.50569, 40.41705], [-4.50455, 40.41701], [-4.50327, 40.41719], [-4.50184, 40.41761], [-4.50029, 40.41816], [-4.49863, 40.41885], [-4.49686, 40.41968], [-4.49496, 40.42064], [-4.49312, 40.42192], [-4.49131, 40.4235], [-4.48956, 40.42541], [-4.48784, 40.42762], [-4.48584, 40.42967], [-4.48354, 40.43154], [-4.48096, 40.43325], [-4.47809, 40.43478], [-4.4758, 40.4359], [-4.4741, 40.43661], [-4.47311, 40.43717], [-4.47284, 40.4376], [-4.47124, 40.43935], [-4.46832, 40.44244], [-4.46462, 40.44545], [-4.46286, 40.4466], [-4.46321, 40.44842], [-4.46305, 40.45391], [-4.45613, 40.45794], [-4.44831, 40.45965], [-4.4407, 40.45913], [-4.43857, 40.45918], [-4.43114, 40.4641], [-4.4262, 40.46766], [-4.42257, 40.47029], [-4.4218, 40.47083], [-4.41183, 40.47788], [-4.40813, 40.48198], [-4.40071, 40.48854], [-4.38822, 40.49011], [-4.37401, 40.48729], [-4.35931, 40.47771], [-4.35827, 40.47158], [-4.36205, 40.46475], [-4.37114, 40.46007], [-4.3716, 40.45877], [-4.37273, 40.455], [-4.3737, 40.45116], [-4.37268, 40.44706], [-4.36969, 40.44271], [-4.36946, 40.43953], [-4.37045, 40.43875], [-4.37034, 40.43867], [-4.36107, 40.43403], [-4.35006, 40.428], [-4.34421, 40.41958], [-4.34149, 40.41233], [-4.34047, 40.41094], [-4.33627, 40.40873], [-4.32583, 40.40072], [-4.32401, 40.39474], [-4.32198, 40.38584], [-4.322, 40.38098], [-4.33194, 40.37986], [-4.3373, 40.3855], [-4.35068, 40.38752], [-4.36139, 40.39375], [-4.37127, 40.40028], [-4.37134, 40.40151], [-4.37257, 40.40174], [-4.37598, 40.40725], [-4.374, 40.41574], [-4.38162, 40.41789], [-4.38637, 40.41528], [-4.38875, 40.41165], [-4.39626, 40.40863], [-4.40078, 40.41123], [-4.40751, 40.41106], [-4.41163, 40.40881], [-4.4168, 40.4058], [-4.41469, 40.3989], [-4.39307, 40.39359], [-4.38392, 40.38626], [-4.37855, 40.38063], [-4.37773, 40.37311], [-4.38095, 40.36934], [-4.38246, 40.36408], [-4.38891, 40.36261], [-4.39306, 40.36685], [-4.39379, 40.37004], [-4.39585, 40.37408], [-4.40363, 40.3764], [-4.40932, 40.37855], [-4.41185, 40.37409], [-4.41761, 40.36968], [-4.4181, 40.36945], [-4.41893, 40.36216], [-4.42357, 40.36164], [-4.42807, 40.3615], [-4.4355, 40.36231], [-4.43618, 40.36254], [-4.44231, 40.36083], [-4.45293, 40.35898], [-4.45858, 40.35569], [-4.46634, 40.35071], [-4.48031, 40.34945], [-4.4888, 40.35229], [-4.49924, 40.35893], [-4.50908, 40.36757], [-4.52452, 40.36499], [-4.52871, 40.35999], [-4.53676, 40.35934], [-4.5476, 40.36154], [-4.55785, 40.36575], [-4.5685, 40.36752], [-4.56909, 40.36711], [-4.57162, 40.36532], [-4.57432, 40.36341], [-4.57718, 40.36136], [-4.58028, 40.35968], [-4.58362, 40.35837], [-4.58719, 40.35743], [-4.59101, 40.35686], [-4.59238, 40.35652], [-4.58966, 40.35113], [-4.58735, 40.34314], [-4.59133, 40.3349], [-4.59177, 40.33426], [-4.58878, 40.32396]], [[-4.78019, 40.33561], [-4.7804, 40.33594], [-4.78041, 40.33611], [-4.78042, 40.33628], [-4.78043, 40.33643], [-4.78065, 40.33653], [-4.78109, 40.33657], [-4.78166, 40.3366], [-4.78235, 40.3366], [-4.78269, 40.33649], [-4.78267, 40.33628], [-4.78256, 40.33605], [-4.78235, 40.33582], [-4.78211, 40.33558], [-4.78182, 40.33533], [-4.78166, 40.33513], [-4.78162, 40.33496], [-4.78161, 40.33472], [-4.78162, 40.3344], [-4.78149, 40.33425], [-4.78123, 40.33424], [-4.78073, 40.33437], [-4.77999, 40.33464], [-4.77961, 40.33481], [-4.7796, 40.33488], [-4.77979, 40.33514], [-4.78019, 40.33561]]]]}}]}