{
  "type": "FeatureCollection",
  "name": "Madison Square building footprints for the DeckGlOverlay composition",
  "source": "New York City Office of Technology and Innovation, Building Footprints",
  "sourceUrl": "https://data.cityofnewyork.us/d/5zhs-2jue",
  "termsUrl": "https://opendata.cityofnewyork.us/overview/#termsofuse",
  "modified": "Every other feature from the PR 504 Madison Square subset, with multipolygons flattened where possible, source roof heights converted from feet to metres, and coordinate precision reduced by Reuters Graphics.",
  "features": [
    {
      "type": "Feature",
      "id": "1015607",
      "geometry": {
        "type": "Polygon",
        "coordinates": [
          [
            [-73.990508, 40.74351],
            [-73.990533, 40.743475],
            [-73.990659, 40.743303],
            [-73.990684, 40.743269],
            [-73.990688, 40.743264],
            [-73.990848, 40.743331],
            [-73.990777, 40.743428],
            [-73.990773, 40.743434],
            [-73.990668, 40.743578],
            [-73.990576, 40.743539],
            [-73.990508, 40.74351]
          ]
        ]
      },
      "properties": {
        "bin": "1015607",
        "name": null,
        "heightMeters": 6.4,
        "constructionYear": 1935
      }
    },
    {
      "type": "Feature",
      "id": "1015581",
      "geometry": {
        "type": "Polygon",
        "coordinates": [
          [
            [-73.99033, 40.742306],
            [-73.990489, 40.742088],
            [-73.990569, 40.742121],
            [-73.990431, 40.742311],
            [-73.990403, 40.742351],
            [-73.990322, 40.742317],
            [-73.99033, 40.742306]
          ]
        ]
      },
      "properties": {
        "bin": "1015581",
        "name": null,
        "heightMeters": 16.9,
        "constructionYear": 1862
      }
    },
    {
      "type": "Feature",
      "id": "1015596",
      "geometry": {
        "type": "Polygon",
        "coordinates": [
          [
            [-73.990529, 40.743206],
            [-73.990554, 40.743171],
            [-73.990681, 40.742997],
            [-73.990758, 40.743029],
            [-73.990629, 40.743206],
            [-73.990611, 40.743231],
            [-73.990605, 40.743238],
            [-73.990529, 40.743206]
          ]
        ]
      },
      "properties": {
        "bin": "1015596",
        "name": null,
        "heightMeters": 18,
        "constructionYear": 1920
      }
    },
    {
      "type": "Feature",
      "id": "1015653",
      "geometry": {
        "type": "Polygon",
        "coordinates": [
          [
            [-73.98807, 40.743918],
            [-73.988112, 40.74386],
            [-73.988274, 40.743928],
            [-73.988491, 40.74402],
            [-73.988469, 40.74405],
            [-73.988408, 40.744024],
            [-73.988388, 40.744052],
            [-73.988263, 40.743999],
            [-73.98807, 40.743918]
          ]
        ]
      },
      "properties": {
        "bin": "1015653",
        "name": null,
        "heightMeters": 21.7,
        "constructionYear": 1853
      }
    },
    {
      "type": "Feature",
      "id": "1015579",
      "geometry": {
        "type": "Polygon",
        "coordinates": [
          [
            [-73.990824, 40.742849],
            [-73.990964, 40.742656],
            [-73.990952, 40.742652],
            [-73.990972, 40.742625],
            [-73.991154, 40.742374],
            [-73.991342, 40.742454],
            [-73.99119, 40.742662],
            [-73.991183, 40.742672],
            [-73.991157, 40.742709],
            [-73.991001, 40.742924],
            [-73.990824, 40.742849]
          ]
        ]
      },
      "properties": {
        "bin": "1015579",
        "name": null,
        "heightMeters": 34.2,
        "constructionYear": 1894
      }
    },
    {
      "type": "Feature",
      "id": "1015593",
      "geometry": {
        "type": "Polygon",
        "coordinates": [
          [
            [-73.99113, 40.743443],
            [-73.991138, 40.743432],
            [-73.991271, 40.74325],
            [-73.991274, 40.743246],
            [-73.991462, 40.743326],
            [-73.991436, 40.743362],
            [-73.991319, 40.743523],
            [-73.991171, 40.743461],
            [-73.99113, 40.743443]
          ]
        ]
      },
      "properties": {
        "bin": "1015593",
        "name": null,
        "heightMeters": 45.8,
        "constructionYear": 1912
      }
    },
    {
      "type": "Feature",
      "id": "1015618",
      "geometry": {
        "type": "Polygon",
        "coordinates": [
          [
            [-73.989461, 40.743579],
            [-73.989479, 40.743555],
            [-73.989436, 40.743537],
            [-73.98951, 40.743435],
            [-73.989503, 40.743432],
            [-73.989417, 40.743396],
            [-73.989344, 40.743497],
            [-73.989227, 40.743448],
            [-73.989208, 40.743444],
            [-73.989201, 40.743442],
            [-73.989243, 40.74322],
            [-73.989291, 40.743202],
            [-73.989658, 40.743356],
            [-73.989682, 40.743366],
            [-73.989675, 40.743376],
            [-73.989523, 40.743585],
            [-73.989513, 40.7436],
            [-73.989461, 40.743579]
          ]
        ]
      },
      "properties": {
        "bin": "1015618",
        "name": null,
        "heightMeters": 52,
        "constructionYear": 1897
      }
    },
    {
      "type": "Feature",
      "id": "1015602",
      "geometry": {
        "type": "Polygon",
        "coordinates": [
          [
            [-73.989304, 40.742856],
            [-73.989355, 40.742489],
            [-73.989417, 40.742464],
            [-73.989463, 40.742484],
            [-73.989627, 40.742553],
            [-73.989774, 40.742615],
            [-73.989957, 40.742692],
            [-73.989865, 40.742819],
            [-73.989677, 40.742739],
            [-73.989635, 40.742722],
            [-73.989623, 40.742739],
            [-73.989564, 40.74282],
            [-73.989678, 40.742867],
            [-73.989723, 40.742886],
            [-73.989641, 40.742998],
            [-73.989304, 40.742856]
          ]
        ]
      },
      "properties": {
        "bin": "1015602",
        "name": null,
        "heightMeters": 91.4,
        "constructionYear": 2015
      }
    },
    {
      "type": "Feature",
      "id": "1015615",
      "geometry": {
        "type": "Polygon",
        "coordinates": [
          [
            [-73.990541, 40.743726],
            [-73.990513, 40.743765],
            [-73.990475, 40.743749],
            [-73.990503, 40.74371],
            [-73.990541, 40.743726]
          ]
        ]
      },
      "properties": {
        "bin": "1015615",
        "name": null,
        "heightMeters": 2.7,
        "constructionYear": null
      }
    },
    {
      "type": "Feature",
      "id": "1015651",
      "geometry": {
        "type": "Polygon",
        "coordinates": [
          [
            [-73.98816, 40.743795],
            [-73.988209, 40.743726],
            [-73.988299, 40.743764],
            [-73.988393, 40.743804],
            [-73.988405, 40.743787],
            [-73.988622, 40.743879],
            [-73.988605, 40.743901],
            [-73.988545, 40.743876],
            [-73.988499, 40.743938],
            [-73.988286, 40.743848],
            [-73.98816, 40.743795]
          ]
        ]
      },
      "properties": {
        "bin": "1015651",
        "name": null,
        "heightMeters": 21.9,
        "constructionYear": 1912
      }
    },
    {
      "type": "Feature",
      "id": "1015601",
      "geometry": {
        "type": "Polygon",
        "coordinates": [
          [
            [-73.989865, 40.742819],
            [-73.989957, 40.742692],
            [-73.990039, 40.742726],
            [-73.989925, 40.742882],
            [-73.989843, 40.742848],
            [-73.989865, 40.742819]
          ]
        ]
      },
      "properties": {
        "bin": "1015601",
        "name": null,
        "heightMeters": 17.7,
        "constructionYear": 1925
      }
    },
    {
      "type": "Feature",
      "id": "1015646",
      "geometry": {
        "type": "Polygon",
        "coordinates": [
          [
            [-73.989087, 40.744132],
            [-73.989098, 40.744071],
            [-73.98937, 40.744109],
            [-73.989361, 40.744161],
            [-73.989087, 40.744132]
          ]
        ]
      },
      "properties": {
        "bin": "1015646",
        "name": null,
        "heightMeters": 19.3,
        "constructionYear": 1854
      }
    },
    {
      "type": "Feature",
      "id": "1015630",
      "geometry": {
        "type": "Polygon",
        "coordinates": [
          [
            [-73.990514, 40.74433],
            [-73.990624, 40.744179],
            [-73.990684, 40.744205],
            [-73.990574, 40.744356],
            [-73.990514, 40.74433]
          ]
        ]
      },
      "properties": {
        "bin": "1015630",
        "name": null,
        "heightMeters": 18,
        "constructionYear": 2018
      }
    },
    {
      "type": "Feature",
      "id": "1015580",
      "geometry": {
        "type": "Polygon",
        "coordinates": [
          [
            [-73.990304, 40.742628],
            [-73.990413, 40.742478],
            [-73.990474, 40.742393],
            [-73.990498, 40.742362],
            [-73.99049, 40.742336],
            [-73.990431, 40.742311],
            [-73.990569, 40.742121],
            [-73.990845, 40.742238],
            [-73.99088, 40.742252],
            [-73.990742, 40.742443],
            [-73.990712, 40.74243],
            [-73.990704, 40.742441],
            [-73.990671, 40.742486],
            [-73.99065, 40.742515],
            [-73.990663, 40.742521],
            [-73.99052, 40.742718],
            [-73.990304, 40.742628]
          ]
        ]
      },
      "properties": {
        "bin": "1015580",
        "name": null,
        "heightMeters": 29.2,
        "constructionYear": 1881
      }
    },
    {
      "type": "Feature",
      "id": "1015626",
      "geometry": {
        "type": "Polygon",
        "coordinates": [
          [
            [-73.98992, 40.744038],
            [-73.990001, 40.743925],
            [-73.990052, 40.743946],
            [-73.990076, 40.743912],
            [-73.990109, 40.743926],
            [-73.989988, 40.744094],
            [-73.989984, 40.7441],
            [-73.989901, 40.744065],
            [-73.98992, 40.744038]
          ]
        ]
      },
      "properties": {
        "bin": "1015626",
        "name": null,
        "heightMeters": 18.8,
        "constructionYear": 1920
      }
    },
    {
      "type": "Feature",
      "id": "1015649",
      "geometry": {
        "type": "Polygon",
        "coordinates": [
          [
            [-73.988513, 40.74399],
            [-73.988473, 40.743973],
            [-73.988499, 40.743938],
            [-73.988545, 40.743876],
            [-73.988605, 40.743901],
            [-73.988622, 40.743879],
            [-73.988705, 40.743764],
            [-73.98871, 40.743758],
            [-73.988874, 40.743828],
            [-73.988875, 40.743828],
            [-73.988875, 40.74383],
            [-73.988865, 40.743885],
            [-73.988832, 40.744066],
            [-73.988822, 40.74412],
            [-73.988655, 40.74405],
            [-73.988513, 40.74399]
          ]
        ]
      },
      "properties": {
        "bin": "1015649",
        "name": "Lowell Building",
        "heightMeters": 70.5,
        "constructionYear": 1916
      }
    },
    {
      "type": "Feature",
      "id": "1015623",
      "geometry": {
        "type": "Polygon",
        "coordinates": [
          [
            [-73.988513, 40.743319],
            [-73.988525, 40.743301],
            [-73.988511, 40.743295],
            [-73.988542, 40.743252],
            [-73.988557, 40.743258],
            [-73.988564, 40.743248],
            [-73.9886, 40.743263],
            [-73.988951, 40.743406],
            [-73.988934, 40.743491],
            [-73.988598, 40.743354],
            [-73.988513, 40.743319]
          ]
        ]
      },
      "properties": {
        "bin": "1015623",
        "name": null,
        "heightMeters": 49.5,
        "constructionYear": 1902
      }
    },
    {
      "type": "Feature",
      "id": "1015645",
      "geometry": {
        "type": "Polygon",
        "coordinates": [
          [
            [-73.98937, 40.744109],
            [-73.989098, 40.744071],
            [-73.98912, 40.743954],
            [-73.98912, 40.743953],
            [-73.98912, 40.743953],
            [-73.98912, 40.743953],
            [-73.98912, 40.743953],
            [-73.98912, 40.743952],
            [-73.989121, 40.743952],
            [-73.989121, 40.743952],
            [-73.989121, 40.743951],
            [-73.989121, 40.743951],
            [-73.989122, 40.743951],
            [-73.989122, 40.74395],
            [-73.989122, 40.74395],
            [-73.989123, 40.74395],
            [-73.989123, 40.743949],
            [-73.989123, 40.743949],
            [-73.989123, 40.743949],
            [-73.989124, 40.743949],
            [-73.989124, 40.743948],
            [-73.989124, 40.743948],
            [-73.989125, 40.743948],
            [-73.989125, 40.743948],
            [-73.989125, 40.743948],
            [-73.989125, 40.743948],
            [-73.989125, 40.743948],
            [-73.989126, 40.743947],
            [-73.989126, 40.743947],
            [-73.989126, 40.743947],
            [-73.989126, 40.743947],
            [-73.989126, 40.743947],
            [-73.989127, 40.743947],
            [-73.989127, 40.743947],
            [-73.989127, 40.743947],
            [-73.989127, 40.743947],
            [-73.989127, 40.743947],
            [-73.989127, 40.743946],
            [-73.989128, 40.743946],
            [-73.989128, 40.743946],
            [-73.989128, 40.743946],
            [-73.989128, 40.743946],
            [-73.989128, 40.743946],
            [-73.989129, 40.743946],
            [-73.989129, 40.743946],
            [-73.989129, 40.743946],
            [-73.98913, 40.743945],
            [-73.98913, 40.743945],
            [-73.98913, 40.743945],
            [-73.989131, 40.743945],
            [-73.989131, 40.743945],
            [-73.989131, 40.743945],
            [-73.989132, 40.743945],
            [-73.989132, 40.743945],
            [-73.989133, 40.743945],
            [-73.989133, 40.743945],
            [-73.989133, 40.743945],
            [-73.989134, 40.743945],
            [-73.989134, 40.743945],
            [-73.989134, 40.743944],
            [-73.989134, 40.743944],
            [-73.989135, 40.743944],
            [-73.989135, 40.743944],
            [-73.989135, 40.743944],
            [-73.989136, 40.743944],
            [-73.989136, 40.743944],
            [-73.989136, 40.743944],
            [-73.989137, 40.743944],
            [-73.989137, 40.743944],
            [-73.989137, 40.743944],
            [-73.989138, 40.743944],
            [-73.989138, 40.743944],
            [-73.989138, 40.743944],
            [-73.989139, 40.743944],
            [-73.989139, 40.743944],
            [-73.98914, 40.743944],
            [-73.98914, 40.743944],
            [-73.98914, 40.743944],
            [-73.989141, 40.743944],
            [-73.98943, 40.744066],
            [-73.989421, 40.744078],
            [-73.989396, 40.744112],
            [-73.98937, 40.744109]
          ]
        ]
      },
      "properties": {
        "bin": "1015645",
        "name": null,
        "heightMeters": 41.1,
        "constructionYear": 1927
      }
    },
    {
      "type": "Feature",
      "id": "1015629",
      "geometry": {
        "type": "Polygon",
        "coordinates": [
          [
            [-73.990297, 40.744228],
            [-73.990345, 40.744162],
            [-73.990393, 40.744097],
            [-73.990407, 40.744077],
            [-73.990439, 40.744033],
            [-73.990447, 40.744024],
            [-73.990669, 40.744117],
            [-73.990514, 40.74433],
            [-73.99048, 40.744315],
            [-73.990291, 40.744236],
            [-73.990297, 40.744228]
          ]
        ]
      },
      "properties": {
        "bin": "1015629",
        "name": null,
        "heightMeters": 47.1,
        "constructionYear": 1909
      }
    },
    {
      "type": "Feature",
      "id": "1015598",
      "geometry": {
        "type": "Polygon",
        "coordinates": [
          [
            [-73.990376, 40.743131],
            [-73.990295, 40.743097],
            [-73.990327, 40.743053],
            [-73.990371, 40.742993],
            [-73.990442, 40.742896],
            [-73.990599, 40.742962],
            [-73.990493, 40.743109],
            [-73.990453, 40.743163],
            [-73.990376, 40.743131]
          ]
        ]
      },
      "properties": {
        "bin": "1015598",
        "name": null,
        "heightMeters": 45.7,
        "constructionYear": 1910
      }
    },
    {
      "type": "Feature",
      "id": "1015621",
      "geometry": {
        "type": "Polygon",
        "coordinates": [
          [
            [-73.988604, 40.743171],
            [-73.988648, 40.743108],
            [-73.988983, 40.743245],
            [-73.988967, 40.743324],
            [-73.988612, 40.743178],
            [-73.988614, 40.743175],
            [-73.988604, 40.743171]
          ]
        ]
      },
      "properties": {
        "bin": "1015621",
        "name": null,
        "heightMeters": 20.9,
        "constructionYear": 1857
      }
    },
    {
      "type": "Feature",
      "id": "1015582",
      "geometry": {
        "type": "Polygon",
        "coordinates": [
          [
            [-73.990251, 40.742273],
            [-73.990409, 40.742054],
            [-73.990489, 40.742088],
            [-73.99033, 40.742306],
            [-73.990251, 40.742273]
          ]
        ]
      },
      "properties": {
        "bin": "1015582",
        "name": null,
        "heightMeters": 18.6,
        "constructionYear": 1862
      }
    },
    {
      "type": "Feature",
      "id": "1015583",
      "geometry": {
        "type": "Polygon",
        "coordinates": [
          [
            [-73.989722, 40.742388],
            [-73.989662, 40.742363],
            [-73.989507, 40.742298],
            [-73.989483, 40.742288],
            [-73.989384, 40.742246],
            [-73.989419, 40.742062],
            [-73.989655, 40.741737],
            [-73.989734, 40.741771],
            [-73.990409, 40.742054],
            [-73.990251, 40.742273],
            [-73.990224, 40.742309],
            [-73.990328, 40.742353],
            [-73.99034, 40.742337],
            [-73.990398, 40.742361],
            [-73.990271, 40.742535],
            [-73.990227, 40.742595],
            [-73.990192, 40.742581],
            [-73.990185, 40.742578],
            [-73.990182, 40.742581],
            [-73.990182, 40.742581],
            [-73.989722, 40.742388]
          ]
        ]
      },
      "properties": {
        "bin": "1015583",
        "name": null,
        "heightMeters": 65.7,
        "constructionYear": 1909
      }
    },
    {
      "type": "Feature",
      "id": "1015585",
      "geometry": {
        "type": "Polygon",
        "coordinates": [
          [
            [-73.99052, 40.742718],
            [-73.990663, 40.742521],
            [-73.990685, 40.742491],
            [-73.990805, 40.742542],
            [-73.990773, 40.742586],
            [-73.990826, 40.742609],
            [-73.990832, 40.742611],
            [-73.990793, 40.742665],
            [-73.9907, 40.742794],
            [-73.99052, 40.742718]
          ]
        ]
      },
      "properties": {
        "bin": "1015585",
        "name": null,
        "heightMeters": 30.3,
        "constructionYear": 1904
      }
    },
    {
      "type": "Feature",
      "id": "1015654",
      "geometry": {
        "type": "Polygon",
        "coordinates": [
          [
            [-73.98807, 40.743918],
            [-73.988263, 40.743999],
            [-73.988388, 40.744052],
            [-73.988408, 40.744024],
            [-73.988469, 40.74405],
            [-73.988491, 40.74402],
            [-73.988513, 40.74399],
            [-73.988655, 40.74405],
            [-73.988822, 40.74412],
            [-73.988816, 40.74415],
            [-73.988801, 40.744226],
            [-73.988795, 40.744259],
            [-73.988779, 40.744341],
            [-73.98877, 40.744382],
            [-73.988755, 40.744388],
            [-73.98875, 40.744389],
            [-73.98873, 40.744396],
            [-73.988438, 40.744272],
            [-73.988228, 40.744184],
            [-73.987959, 40.744071],
            [-73.987968, 40.744058],
            [-73.98807, 40.743918]
          ]
        ]
      },
      "properties": {
        "bin": "1015654",
        "name": "Victoria Building",
        "heightMeters": 86,
        "constructionYear": 1915
      }
    },
    {
      "type": "Feature",
      "id": "1015559",
      "geometry": {
        "type": "Polygon",
        "coordinates": [
          [
            [-73.990384, 40.74142],
            [-73.990557, 40.741183],
            [-73.990813, 40.741291],
            [-73.990657, 40.741504],
            [-73.99064, 40.741527],
            [-73.990553, 40.741491],
            [-73.990608, 40.741414],
            [-73.990528, 40.741381],
            [-73.990472, 40.741457],
            [-73.990384, 40.74142]
          ]
        ]
      },
      "properties": {
        "bin": "1015559",
        "name": null,
        "heightMeters": 41.5,
        "constructionYear": 1901
      }
    },
    {
      "type": "Feature",
      "id": "1015625",
      "geometry": {
        "type": "Polygon",
        "coordinates": [
          [
            [-73.989197, 40.743502],
            [-73.989443, 40.743604],
            [-73.989386, 40.743683],
            [-73.98947, 40.743718],
            [-73.989543, 40.743617],
            [-73.989591, 40.743637],
            [-73.989647, 40.743661],
            [-73.989669, 40.74367],
            [-73.989501, 40.743902],
            [-73.989158, 40.743758],
            [-73.98915, 40.743755],
            [-73.989197, 40.743502]
          ]
        ]
      },
      "properties": {
        "bin": "1015625",
        "name": "Saint James Building",
        "heightMeters": 68.1,
        "constructionYear": 1896
      }
    },
    {
      "type": "Feature",
      "id": "1015588",
      "geometry": {
        "type": "Polygon",
        "coordinates": [
          [
            [-73.990742, 40.742443],
            [-73.99088, 40.742252],
            [-73.99102, 40.742311],
            [-73.990874, 40.742512],
            [-73.990734, 40.742453],
            [-73.990742, 40.742443]
          ]
        ]
      },
      "properties": {
        "bin": "1015588",
        "name": null,
        "heightMeters": 23.2,
        "constructionYear": 1880
      }
    },
    {
      "type": "Feature",
      "id": "1015597",
      "geometry": {
        "type": "Polygon",
        "coordinates": [
          [
            [-73.990503, 40.743238],
            [-73.990346, 40.743172],
            [-73.990376, 40.743131],
            [-73.990453, 40.743163],
            [-73.990493, 40.743109],
            [-73.990599, 40.742962],
            [-73.990681, 40.742997],
            [-73.990554, 40.743171],
            [-73.990529, 40.743206],
            [-73.990505, 40.743239],
            [-73.990503, 40.743238]
          ]
        ]
      },
      "properties": {
        "bin": "1015597",
        "name": null,
        "heightMeters": 4.9,
        "constructionYear": 1930
      }
    },
    {
      "type": "Feature",
      "id": "1015571",
      "geometry": {
        "type": "Polygon",
        "coordinates": [
          [
            [-73.990465, 40.741765],
            [-73.99063, 40.741538],
            [-73.99072, 40.741576],
            [-73.990555, 40.741803],
            [-73.990465, 40.741765]
          ]
        ]
      },
      "properties": {
        "bin": "1015571",
        "name": null,
        "heightMeters": 19.2,
        "constructionYear": 1854
      }
    },
    {
      "type": "Feature",
      "id": "1080687",
      "geometry": {
        "type": "Polygon",
        "coordinates": [
          [
            [-73.990345, 40.743455],
            [-73.99042, 40.743352],
            [-73.990503, 40.743238],
            [-73.990505, 40.743239],
            [-73.990659, 40.743303],
            [-73.990533, 40.743475],
            [-73.990508, 40.74351],
            [-73.9905, 40.743521],
            [-73.990345, 40.743455]
          ]
        ]
      },
      "properties": {
        "bin": "1080687",
        "name": null,
        "heightMeters": 46.3,
        "constructionYear": 1911
      }
    },
    {
      "type": "Feature",
      "id": "1091569",
      "geometry": {
        "type": "Polygon",
        "coordinates": [
          [
            [-73.991153, 40.742374],
            [-73.990952, 40.742652],
            [-73.990963, 40.742656],
            [-73.990824, 40.742849],
            [-73.9907, 40.742794],
            [-73.990832, 40.74261],
            [-73.990771, 40.742586],
            [-73.990804, 40.742539],
            [-73.990844, 40.742556],
            [-73.991016, 40.742313],
            [-73.991153, 40.742374]
          ]
        ]
      },
      "properties": {
        "bin": "1091569",
        "name": null,
        "heightMeters": 83.5,
        "constructionYear": 2019
      }
    },
    {
      "type": "Feature",
      "id": "1015600",
      "geometry": {
        "type": "Polygon",
        "coordinates": [
          [
            [-73.990044, 40.742991],
            [-73.990183, 40.7428],
            [-73.990191, 40.74279],
            [-73.990356, 40.74286],
            [-73.990305, 40.742929],
            [-73.990242, 40.743016],
            [-73.990209, 40.743061],
            [-73.990044, 40.742991]
          ]
        ]
      },
      "properties": {
        "bin": "1015600",
        "name": null,
        "heightMeters": 41.3,
        "constructionYear": 1906
      }
    },
    {
      "type": "Feature",
      "id": "1015609",
      "geometry": {
        "type": "Polygon",
        "coordinates": [
          [
            [-73.990823, 40.743643],
            [-73.990903, 40.743534],
            [-73.990969, 40.743443],
            [-73.991301, 40.743582],
            [-73.991182, 40.743745],
            [-73.991155, 40.743783],
            [-73.990823, 40.743643]
          ]
        ]
      },
      "properties": {
        "bin": "1015609",
        "name": null,
        "heightMeters": 46.5,
        "constructionYear": 1913
      }
    },
    {
      "type": "Feature",
      "id": "1015628",
      "geometry": {
        "type": "Polygon",
        "coordinates": [
          [
            [-73.990439, 40.744033],
            [-73.990407, 40.744077],
            [-73.990393, 40.744097],
            [-73.990369, 40.744095],
            [-73.990328, 40.74415],
            [-73.990345, 40.744162],
            [-73.990297, 40.744228],
            [-73.990214, 40.744193],
            [-73.990262, 40.744127],
            [-73.99028, 40.74413],
            [-73.99032, 40.744075],
            [-73.99031, 40.744062],
            [-73.990356, 40.743998],
            [-73.990394, 40.744014],
            [-73.990439, 40.744033]
          ]
        ]
      },
      "properties": {
        "bin": "1015628",
        "name": null,
        "heightMeters": 23.9,
        "constructionYear": 1925
      }
    },
    {
      "type": "Feature",
      "id": "1015572",
      "geometry": {
        "type": "Polygon",
        "coordinates": [
          [
            [-73.990555, 40.741803],
            [-73.99072, 40.741576],
            [-73.990808, 40.741613],
            [-73.990642, 40.74184],
            [-73.990555, 40.741803]
          ]
        ]
      },
      "properties": {
        "bin": "1015572",
        "name": null,
        "heightMeters": 19.3,
        "constructionYear": 1854
      }
    },
    {
      "type": "Feature",
      "id": "1084652",
      "geometry": {
        "type": "Polygon",
        "coordinates": [
          [
            [-73.990943, 40.743334],
            [-73.990978, 40.743286],
            [-73.99105, 40.743188],
            [-73.991185, 40.743244],
            [-73.99117, 40.743264],
            [-73.991171, 40.743265],
            [-73.991145, 40.7433],
            [-73.991102, 40.74336],
            [-73.991084, 40.743384],
            [-73.991079, 40.743392],
            [-73.990943, 40.743334]
          ]
        ]
      },
      "properties": {
        "bin": "1084652",
        "name": null,
        "heightMeters": 49.4,
        "constructionYear": 2006
      }
    },
    {
      "type": "Feature",
      "id": "1015584",
      "geometry": {
        "type": "Polygon",
        "coordinates": [
          [
            [-73.990227, 40.742595],
            [-73.990271, 40.742535],
            [-73.990398, 40.742361],
            [-73.990474, 40.742393],
            [-73.990413, 40.742478],
            [-73.990304, 40.742628],
            [-73.990227, 40.742595]
          ]
        ]
      },
      "properties": {
        "bin": "1015584",
        "name": null,
        "heightMeters": 10.1,
        "constructionYear": 1860
      }
    },
    {
      "type": "Feature",
      "id": "1015620",
      "geometry": {
        "type": "Polygon",
        "coordinates": [
          [
            [-73.988648, 40.743108],
            [-73.988698, 40.743037],
            [-73.989, 40.743161],
            [-73.988983, 40.743245],
            [-73.988648, 40.743108]
          ]
        ]
      },
      "properties": {
        "bin": "1015620",
        "name": null,
        "heightMeters": 19.1,
        "constructionYear": 1913
      }
    },
    {
      "type": "Feature",
      "id": "1016288",
      "geometry": {
        "type": "Polygon",
        "coordinates": [
          [
            [-73.987161, 40.740379],
            [-73.987313, 40.740169],
            [-73.987391, 40.740202],
            [-73.987238, 40.740411],
            [-73.987178, 40.740386],
            [-73.987161, 40.740379]
          ]
        ]
      },
      "properties": {
        "bin": "1016288",
        "name": null,
        "heightMeters": 30.5,
        "constructionYear": 1905
      }
    },
    {
      "type": "Feature",
      "id": "1016279",
      "geometry": {
        "type": "Polygon",
        "coordinates": [
          [
            [-73.988604, 40.740637],
            [-73.98875, 40.740437],
            [-73.988832, 40.740472],
            [-73.988703, 40.740648],
            [-73.988686, 40.740672],
            [-73.988621, 40.740644],
            [-73.988604, 40.740637]
          ]
        ]
      },
      "properties": {
        "bin": "1016279",
        "name": null,
        "heightMeters": 33.8,
        "constructionYear": 1901
      }
    },
    {
      "type": "Feature",
      "id": "1016277",
      "geometry": {
        "type": "Polygon",
        "coordinates": [
          [
            [-73.988881, 40.740274],
            [-73.989002, 40.740112],
            [-73.989052, 40.740134],
            [-73.9891, 40.740069],
            [-73.989343, 40.740174],
            [-73.989262, 40.740428],
            [-73.989261, 40.740431],
            [-73.989259, 40.740434],
            [-73.989257, 40.740437],
            [-73.989253, 40.740439],
            [-73.989249, 40.74044],
            [-73.989245, 40.740441],
            [-73.989241, 40.740441],
            [-73.989228, 40.740437],
            [-73.98902, 40.740348],
            [-73.988955, 40.74032],
            [-73.988956, 40.74032],
            [-73.988964, 40.740309],
            [-73.988881, 40.740274]
          ]
        ]
      },
      "properties": {
        "bin": "1016277",
        "name": null,
        "heightMeters": 26.2,
        "constructionYear": 1900
      }
    },
    {
      "type": "Feature",
      "id": "1016282",
      "geometry": {
        "type": "Polygon",
        "coordinates": [
          [
            [-73.987923, 40.740368],
            [-73.987974, 40.740298],
            [-73.988019, 40.740236],
            [-73.988072, 40.740163],
            [-73.988177, 40.740207],
            [-73.98803, 40.740409],
            [-73.988023, 40.740419],
            [-73.988021, 40.740422],
            [-73.987962, 40.740397],
            [-73.987969, 40.740387],
            [-73.987923, 40.740368]
          ]
        ]
      },
      "properties": {
        "bin": "1016282",
        "name": null,
        "heightMeters": 26.1,
        "constructionYear": 1904
      }
    },
    {
      "type": "Feature",
      "id": "1016280",
      "geometry": {
        "type": "Polygon",
        "coordinates": [
          [
            [-73.988377, 40.740555],
            [-73.988297, 40.740522],
            [-73.988249, 40.740502],
            [-73.988137, 40.740454],
            [-73.98829, 40.740244],
            [-73.988322, 40.740257],
            [-73.988519, 40.74034],
            [-73.988744, 40.740435],
            [-73.98875, 40.740437],
            [-73.988604, 40.740637],
            [-73.988596, 40.740648],
            [-73.988462, 40.740591],
            [-73.988377, 40.740555]
          ]
        ]
      },
      "properties": {
        "bin": "1016280",
        "name": null,
        "heightMeters": 45.6,
        "constructionYear": 1911
      }
    },
    {
      "type": "Feature",
      "id": "1080766",
      "geometry": {
        "type": "Polygon",
        "coordinates": [
          [
            [-73.989648, 40.740362],
            [-73.989656, 40.740302],
            [-73.989786, 40.740312],
            [-73.989779, 40.740373],
            [-73.989648, 40.740362]
          ]
        ]
      },
      "properties": {
        "bin": "1080766",
        "name": null,
        "heightMeters": 11.6,
        "constructionYear": 1846
      }
    },
    {
      "type": "Feature",
      "id": "1080767",
      "geometry": {
        "type": "Polygon",
        "coordinates": [
          [
            [-73.989648, 40.740362],
            [-73.989779, 40.740373],
            [-73.989772, 40.740426],
            [-73.989771, 40.740425],
            [-73.98964, 40.740415],
            [-73.989648, 40.740362]
          ]
        ]
      },
      "properties": {
        "bin": "1080767",
        "name": null,
        "heightMeters": 12.9,
        "constructionYear": 1846
      }
    },
    {
      "type": "Feature",
      "id": "1016289",
      "geometry": {
        "type": "Polygon",
        "coordinates": [
          [
            [-73.987238, 40.740411],
            [-73.987391, 40.740202],
            [-73.9874, 40.740188],
            [-73.987473, 40.740219],
            [-73.987441, 40.740263],
            [-73.987311, 40.740442],
            [-73.987238, 40.740411]
          ]
        ]
      },
      "properties": {
        "bin": "1016289",
        "name": null,
        "heightMeters": 20.3,
        "constructionYear": 1925
      }
    },
    {
      "type": "Feature",
      "id": "1016730",
      "geometry": {
        "type": "Polygon",
        "coordinates": [
          [
            [-73.987819, 40.740324],
            [-73.987938, 40.740161],
            [-73.987968, 40.740119],
            [-73.988072, 40.740163],
            [-73.988019, 40.740236],
            [-73.987997, 40.740237],
            [-73.987962, 40.740285],
            [-73.987974, 40.740298],
            [-73.987923, 40.740368],
            [-73.987865, 40.740344],
            [-73.987819, 40.740324]
          ]
        ]
      },
      "properties": {
        "bin": "1016730",
        "name": null,
        "heightMeters": 41.8,
        "constructionYear": 1902
      }
    },
    {
      "type": "Feature",
      "id": "1016302",
      "geometry": {
        "type": "Polygon",
        "coordinates": [
          [
            [-73.988268, 40.740838],
            [-73.988418, 40.740631],
            [-73.988431, 40.740613],
            [-73.988454, 40.740623],
            [-73.988513, 40.740648],
            [-73.988486, 40.740685],
            [-73.988419, 40.740776],
            [-73.98835, 40.740872],
            [-73.988268, 40.740838]
          ]
        ]
      },
      "properties": {
        "bin": "1016302",
        "name": null,
        "heightMeters": 16.2,
        "constructionYear": 1920
      }
    },
    {
      "type": "Feature",
      "id": "1016283",
      "geometry": {
        "type": "Polygon",
        "coordinates": [
          [
            [-73.987692, 40.740202],
            [-73.987743, 40.740133],
            [-73.987754, 40.740117],
            [-73.987803, 40.74005],
            [-73.987811, 40.740038],
            [-73.987961, 40.740101],
            [-73.987976, 40.740108],
            [-73.987968, 40.740119],
            [-73.987938, 40.740161],
            [-73.987819, 40.740324],
            [-73.987646, 40.740251],
            [-73.987673, 40.740213],
            [-73.987682, 40.740217],
            [-73.987692, 40.740202]
          ]
        ]
      },
      "properties": {
        "bin": "1016283",
        "name": null,
        "heightMeters": 45.7,
        "constructionYear": 1907
      }
    },
    {
      "type": "Feature",
      "id": "1016301",
      "geometry": {
        "type": "Polygon",
        "coordinates": [
          [
            [-73.988194, 40.740807],
            [-73.988275, 40.740694],
            [-73.988344, 40.7406],
            [-73.988418, 40.740631],
            [-73.988268, 40.740838],
            [-73.988248, 40.740829],
            [-73.988194, 40.740807]
          ]
        ]
      },
      "properties": {
        "bin": "1016301",
        "name": null,
        "heightMeters": 28.7,
        "constructionYear": 1900
      }
    },
    {
      "type": "Feature",
      "id": "1016291",
      "geometry": {
        "type": "Polygon",
        "coordinates": [
          [
            [-73.9874, 40.740473],
            [-73.98748, 40.740364],
            [-73.987513, 40.740378],
            [-73.987537, 40.740345],
            [-73.987503, 40.740331],
            [-73.987556, 40.740258],
            [-73.987636, 40.740292],
            [-73.98748, 40.740506],
            [-73.9874, 40.740473]
          ]
        ]
      },
      "properties": {
        "bin": "1016291",
        "name": null,
        "heightMeters": 38,
        "constructionYear": 1905
      }
    },
    {
      "type": "Feature",
      "id": "1088749",
      "geometry": {
        "type": "Polygon",
        "coordinates": [
          [
            [-73.986663, 40.741097],
            [-73.986627, 40.741082],
            [-73.986118, 40.740867],
            [-73.986092, 40.740856],
            [-73.986093, 40.740856],
            [-73.986435, 40.740385],
            [-73.986739, 40.740513],
            [-73.986711, 40.740551],
            [-73.987037, 40.740688],
            [-73.98744, 40.740858],
            [-73.987468, 40.74082],
            [-73.987763, 40.740944],
            [-73.987773, 40.740948],
            [-73.987751, 40.740978],
            [-73.987555, 40.741247],
            [-73.987283, 40.741132],
            [-73.987165, 40.741308],
            [-73.986799, 40.741154],
            [-73.986663, 40.741097]
          ]
        ]
      },
      "properties": {
        "bin": "1088749",
        "name": null,
        "heightMeters": 71,
        "constructionYear": 1932
      }
    },
    {
      "type": "Feature",
      "id": "1016241",
      "geometry": {
        "type": "Polygon",
        "coordinates": [
          [
            [-73.989933, 40.740298],
            [-73.989859, 40.740266],
            [-73.989854, 40.740265],
            [-73.989663, 40.74025],
            [-73.989672, 40.740188],
            [-73.989795, 40.740198],
            [-73.98998, 40.740273],
            [-73.989955, 40.740308],
            [-73.989933, 40.740298]
          ]
        ]
      },
      "properties": {
        "bin": "1016241",
        "name": null,
        "heightMeters": 19.3,
        "constructionYear": 1858
      }
    },
    {
      "type": "Feature",
      "id": "1015500",
      "geometry": {
        "type": "Polygon",
        "coordinates": [
          [
            [-73.990887, 40.740041],
            [-73.99105, 40.740109],
            [-73.991188, 40.740167],
            [-73.991169, 40.740193],
            [-73.991253, 40.740229],
            [-73.991214, 40.740282],
            [-73.991284, 40.740311],
            [-73.991181, 40.740453],
            [-73.991068, 40.740405],
            [-73.990727, 40.740262],
            [-73.99074, 40.740242],
            [-73.990887, 40.740041]
          ]
        ]
      },
      "properties": {
        "bin": "1015500",
        "name": null,
        "heightMeters": 42.2,
        "constructionYear": 1900
      }
    },
    {
      "type": "Feature",
      "id": "1015561",
      "geometry": {
        "type": "Polygon",
        "coordinates": [
          [
            [-73.990132, 40.741081],
            [-73.990175, 40.741023],
            [-73.990175, 40.741022],
            [-73.990204, 40.741034],
            [-73.990236, 40.741048],
            [-73.990492, 40.741156],
            [-73.990449, 40.741214],
            [-73.990295, 40.741149],
            [-73.990132, 40.741081]
          ]
        ]
      },
      "properties": {
        "bin": "1015561",
        "name": null,
        "heightMeters": 23.9,
        "constructionYear": 1930
      }
    },
    {
      "type": "Feature",
      "id": "1015534",
      "geometry": {
        "type": "Polygon",
        "coordinates": [
          [
            [-73.990831, 40.740688],
            [-73.990516, 40.740556],
            [-73.990505, 40.740552],
            [-73.990615, 40.7404],
            [-73.990624, 40.740398],
            [-73.99063, 40.740396],
            [-73.990657, 40.740408],
            [-73.990727, 40.740437],
            [-73.990841, 40.740485],
            [-73.991015, 40.740557],
            [-73.991088, 40.740588],
            [-73.991085, 40.740593],
            [-73.991081, 40.740599],
            [-73.990928, 40.740809],
            [-73.990853, 40.740777],
            [-73.990897, 40.740716],
            [-73.990831, 40.740688]
          ]
        ]
      },
      "properties": {
        "bin": "1015534",
        "name": null,
        "heightMeters": 46,
        "constructionYear": 1930
      }
    },
    {
      "type": "Feature",
      "id": "1015562",
      "geometry": {
        "type": "Polygon",
        "coordinates": [
          [
            [-73.990363, 40.74131],
            [-73.990211, 40.741246],
            [-73.990059, 40.741181],
            [-73.990132, 40.741081],
            [-73.990295, 40.741149],
            [-73.990449, 40.741214],
            [-73.990376, 40.741315],
            [-73.990363, 40.74131]
          ]
        ]
      },
      "properties": {
        "bin": "1015562",
        "name": null,
        "heightMeters": 23.5,
        "constructionYear": 1900
      }
    },
    {
      "type": "Feature",
      "id": "1015539",
      "geometry": {
        "type": "Polygon",
        "coordinates": [
          [
            [-73.990919, 40.740822],
            [-73.990912, 40.740831],
            [-73.990866, 40.740895],
            [-73.990739, 40.74107],
            [-73.990739, 40.74107],
            [-73.990662, 40.741037],
            [-73.99077, 40.740887],
            [-73.990841, 40.74079],
            [-73.990919, 40.740822]
          ]
        ]
      },
      "properties": {
        "bin": "1015539",
        "name": null,
        "heightMeters": 43.2,
        "constructionYear": 1903
      }
    },
    {
      "type": "Feature",
      "id": "1015536",
      "geometry": {
        "type": "Polygon",
        "coordinates": [
          [
            [-73.990423, 40.740684],
            [-73.990467, 40.740623],
            [-73.990782, 40.740755],
            [-73.990812, 40.740767],
            [-73.990768, 40.740828],
            [-73.990423, 40.740684]
          ]
        ]
      },
      "properties": {
        "bin": "1015536",
        "name": null,
        "heightMeters": 23.6,
        "constructionYear": 1910
      }
    },
    {
      "type": "Feature",
      "id": "1016743",
      "geometry": {
        "type": "Polygon",
        "coordinates": [
          [
            [-73.986636, 40.742392],
            [-73.986491, 40.742331],
            [-73.986549, 40.742251],
            [-73.986546, 40.74225],
            [-73.986446, 40.742207],
            [-73.986388, 40.742287],
            [-73.986264, 40.742235],
            [-73.986233, 40.742222],
            [-73.986287, 40.742147],
            [-73.986397, 40.741995],
            [-73.986781, 40.742157],
            [-73.986859, 40.742189],
            [-73.986851, 40.7422],
            [-73.986866, 40.742207],
            [-73.986811, 40.742283],
            [-73.986796, 40.742276],
            [-73.986694, 40.742416],
            [-73.986636, 40.742392]
          ]
        ]
      },
      "properties": {
        "bin": "1016743",
        "name": "New York State Supreme Court",
        "heightMeters": 23,
        "constructionYear": 1899
      }
    },
    {
      "type": "Feature",
      "id": "1016741",
      "geometry": {
        "type": "Polygon",
        "coordinates": [
          [
            [-73.987165, 40.741308],
            [-73.987283, 40.741132],
            [-73.987555, 40.741247],
            [-73.98743, 40.74142],
            [-73.987165, 40.741308]
          ]
        ]
      },
      "properties": {
        "bin": "1016741",
        "name": null,
        "heightMeters": 182.9,
        "constructionYear": 1909
      }
    },
    {
      "type": "Feature",
      "id": "1016749",
      "geometry": {
        "type": "Polygon",
        "coordinates": [
          [
            [-73.986006, 40.742211],
            [-73.986053, 40.742147],
            [-73.986151, 40.742188],
            [-73.986233, 40.742222],
            [-73.986264, 40.742235],
            [-73.986388, 40.742287],
            [-73.986417, 40.7423],
            [-73.986491, 40.742331],
            [-73.986636, 40.742392],
            [-73.986529, 40.74254],
            [-73.98645, 40.742507],
            [-73.986415, 40.742556],
            [-73.986085, 40.742417],
            [-73.986045, 40.7424],
            [-73.98608, 40.742352],
            [-73.985945, 40.742295],
            [-73.986006, 40.742211]
          ]
        ]
      },
      "properties": {
        "bin": "1016749",
        "name": null,
        "heightMeters": 166.8,
        "constructionYear": 1971
      }
    },
    {
      "type": "Feature",
      "id": "1016886",
      "geometry": {
        "type": "Polygon",
        "coordinates": [
          [
            [-73.986922, 40.743895],
            [-73.986966, 40.743837],
            [-73.987146, 40.743914],
            [-73.987103, 40.743972],
            [-73.98707, 40.743958],
            [-73.986949, 40.744121],
            [-73.986834, 40.744071],
            [-73.986955, 40.743908],
            [-73.986922, 40.743895]
          ]
        ]
      },
      "properties": {
        "bin": "1016886",
        "name": null,
        "heightMeters": 45.4,
        "constructionYear": 1905
      }
    },
    {
      "type": "Feature",
      "id": "1089338",
      "geometry": {
        "type": "Polygon",
        "coordinates": [
          [
            [-73.986601, 40.743493],
            [-73.98694, 40.743029],
            [-73.987037, 40.74307],
            [-73.98691, 40.743244],
            [-73.986824, 40.743362],
            [-73.986702, 40.743528],
            [-73.986698, 40.743534],
            [-73.986601, 40.743493]
          ]
        ]
      },
      "properties": {
        "bin": "1089338",
        "name": null,
        "heightMeters": 25.3,
        "constructionYear": 1924
      }
    },
    {
      "type": "Feature",
      "id": "1016899",
      "geometry": {
        "type": "Polygon",
        "coordinates": [
          [
            [-73.98564, 40.744314],
            [-73.985638, 40.744313],
            [-73.98567, 40.744269],
            [-73.985766, 40.74414],
            [-73.985769, 40.744136],
            [-73.985995, 40.744233],
            [-73.986063, 40.744262],
            [-73.985997, 40.744351],
            [-73.985981, 40.744372],
            [-73.985889, 40.744333],
            [-73.98584, 40.744399],
            [-73.98564, 40.744314]
          ]
        ]
      },
      "properties": {
        "bin": "1016899",
        "name": null,
        "heightMeters": 39.1,
        "constructionYear": 1923
      }
    },
    {
      "type": "Feature",
      "id": "1016877",
      "geometry": {
        "type": "Polygon",
        "coordinates": [
          [
            [-73.986702, 40.743528],
            [-73.986824, 40.743362],
            [-73.986873, 40.743382],
            [-73.986959, 40.743264],
            [-73.98691, 40.743244],
            [-73.987037, 40.74307],
            [-73.987092, 40.743093],
            [-73.9873, 40.743181],
            [-73.987206, 40.743309],
            [-73.987162, 40.74329],
            [-73.987133, 40.743329],
            [-73.987044, 40.743452],
            [-73.987089, 40.743471],
            [-73.986965, 40.743639],
            [-73.986702, 40.743528]
          ]
        ]
      },
      "properties": {
        "bin": "1016877",
        "name": null,
        "heightMeters": 84.6,
        "constructionYear": 1912
      }
    },
    {
      "type": "Feature",
      "id": "1016895",
      "geometry": {
        "type": "Polygon",
        "coordinates": [
          [
            [-73.986556, 40.744295],
            [-73.986627, 40.744199],
            [-73.986738, 40.744247],
            [-73.98679, 40.744178],
            [-73.98672, 40.744148],
            [-73.986769, 40.744081],
            [-73.986781, 40.744086],
            [-73.986951, 40.744159],
            [-73.986902, 40.744226],
            [-73.986885, 40.744219],
            [-73.986839, 40.744281],
            [-73.986868, 40.744294],
            [-73.986805, 40.744378],
            [-73.986802, 40.744382],
            [-73.986798, 40.744388],
            [-73.986792, 40.744397],
            [-73.986776, 40.74439],
            [-73.986556, 40.744295]
          ]
        ]
      },
      "properties": {
        "bin": "1016895",
        "name": "Latham Hotel",
        "heightMeters": 46.5,
        "constructionYear": 1904
      }
    },
    {
      "type": "Feature",
      "id": "1087100",
      "geometry": {
        "type": "Polygon",
        "coordinates": [
          [
            [-73.986492, 40.743137],
            [-73.986564, 40.743038],
            [-73.986659, 40.742908],
            [-73.986672, 40.742914],
            [-73.986675, 40.74291],
            [-73.986742, 40.742938],
            [-73.986738, 40.742944],
            [-73.986751, 40.742949],
            [-73.986665, 40.743066],
            [-73.986585, 40.743176],
            [-73.986492, 40.743137]
          ]
        ]
      },
      "properties": {
        "bin": "1087100",
        "name": null,
        "heightMeters": 47.2,
        "constructionYear": 1910
      }
    },
    {
      "type": "Feature",
      "id": "1016882",
      "geometry": {
        "type": "Polygon",
        "coordinates": [
          [
            [-73.987175, 40.744013],
            [-73.987228, 40.743942],
            [-73.987405, 40.744018],
            [-73.987543, 40.744077],
            [-73.987489, 40.744148],
            [-73.987421, 40.744119],
            [-73.987175, 40.744013]
          ]
        ]
      },
      "properties": {
        "bin": "1016882",
        "name": null,
        "heightMeters": 19.3,
        "constructionYear": 1850
      }
    },
    {
      "type": "Feature",
      "id": "1087263",
      "geometry": {
        "type": "Polygon",
        "coordinates": [
          [
            [-73.987151, 40.743717],
            [-73.987214, 40.743631],
            [-73.987305, 40.743507],
            [-73.987391, 40.743388],
            [-73.987485, 40.74326],
            [-73.987811, 40.743398],
            [-73.987817, 40.74339],
            [-73.987953, 40.743448],
            [-73.987985, 40.743461],
            [-73.987764, 40.743764],
            [-73.9877, 40.743851],
            [-73.987645, 40.743926],
            [-73.987616, 40.743914],
            [-73.98723, 40.743751],
            [-73.987151, 40.743717]
          ],
          [
            [-73.987722, 40.743518],
            [-73.987507, 40.743432],
            [-73.987421, 40.743557],
            [-73.987636, 40.743643],
            [-73.987722, 40.743518]
          ]
        ]
      },
      "properties": {
        "bin": "1087263",
        "name": null,
        "heightMeters": 50,
        "constructionYear": 1907
      }
    },
    {
      "type": "Feature",
      "id": "1088910",
      "geometry": {
        "type": "Polygon",
        "coordinates": [
          [
            [-73.986519, 40.74123],
            [-73.986555, 40.741245],
            [-73.986704, 40.741308],
            [-73.98732, 40.741567],
            [-73.986983, 40.742031],
            [-73.986918, 40.742003],
            [-73.986484, 40.74182],
            [-73.985761, 40.741516],
            [-73.98565, 40.741469],
            [-73.985987, 40.741006],
            [-73.986519, 40.74123]
          ]
        ]
      },
      "properties": {
        "bin": "1088910",
        "name": null,
        "heightMeters": 134.7,
        "constructionYear": 1932
      }
    }
  ]
}
